[{"OBJECT_NAME":"NETSAT-1","OBJECT_ID":"2020-068W","EPOCH":"2026-03-09T22:42:38.711232","MEAN_MOTION":15.32042482,"ECCENTRICITY":0.00057337,"INCLINATION":97.8751,"RA_OF_ASC_NODE":63.2583,"ARG_OF_PERICENTER":18.5877,"MEAN_ANOMALY":341.5572,"EPHEMERIS_TYPE":0,"CLASSIFICATION_TYPE":"U","NORAD_CAT_ID":46506,"ELEMENT_SET_NO":999,"REV_AT_EPOCH":30009,"BSTAR":0.00059222329,"MEAN_MOTION_DOT":0.00018269,"MEAN_MOTION_DDOT":0},{"OBJECT_NAME":"STARLINK-35614","OBJECT_ID":"2025-240U","EPOCH":"2026-03-09T08:34:31.297152","MEAN_MOTION":15.30198884,"ECCENTRICITY":0.00013363,"INCLINATION":53.1592,"RA_OF_ASC_NODE":64.6241,"ARG_OF_PERICENTER":89.4676,"MEAN_ANOMALY":270.6478,"EPHEMERIS_TYPE":0,"CLASSIFICATION_TYPE":"U","NORAD_CAT_ID":66164,"ELEMENT_SET_NO":999,"REV_AT_EPOCH":2193,"BSTAR":0.00057529529,"MEAN_MOTION_DOT":0.00016717,"MEAN_MOTION_DDOT":0}]
